ONEWEB-0422             
1 51626U 22012E   25259.17376355 -.00000012  00000+0 -63974-4 0  9994
2 51626  87.9052  60.3484 0001089  80.2940 279.8314 13.17646956177725
ONEWEB-0423             
1 51627U 22012F   25259.16700616 -.00000017  00000+0 -76154-4 0  9994
2 51627  87.9052  60.3589 0001752  89.4575 270.6758 13.17647282177616
ONEWEB-0425             
1 51628U 22012G   25259.06056253  .00000686  00000+0  19273-2 0  9992
2 51628  87.8737  90.9248 0001977  81.3489 278.7863 13.10373247173422
ONEWEB-0428             
1 51629U 22012H   25259.04062173 -.00000104  00000+0 -33319-3 0  9994
2 51629  87.8741  90.9503 0001484  86.0456 274.0841 13.10375976173382
ONEWEB-0431             
1 51630U 22012J   25259.23969635 -.00000218  00000+0 -65994-3 0  9996
2 51630  87.8739  90.8830 0001355 109.9457 250.1816 13.10371954173464
ONEWEB-0434             
1 51631U 22012K   25259.06388696  .00000708  00000+0  19917-2 0  9995
2 51631  87.8738  90.9596 0002232  76.9111 283.2265 13.10373273173426
ONEWEB-0435             
1 51632U 22012L   25259.22489491  .00000559  00000+0  15660-2 0  9994
2 51632  87.8734  90.9191 0001305  79.9979 280.1295 13.10369882173430
ONEWEB-0436             
1 51633U 22012M   25259.15856977 -.00000024  00000+0 -95961-4 0  9997
2 51633  87.9044  60.3411 0001505  94.3878 265.7426 13.17647264177599
ONEWEB-0438             
1 51634U 22012N   25259.05557852  .00000585  00000+0  16381-2 0  9994
2 51634  87.8740  90.9537 0001829  83.2322 276.9013 13.10374339173449
ONEWEB-0439             
1 51635U 22012P   25259.05889937  .00000753  00000+0  21205-2 0  9995
2 51635  87.8740  90.9415 0001657  84.0392 276.0924 13.10373889173429
ONEWEB-0442             
1 51636U 22012Q   25259.15099408  .00000087  00000+0  18987-3 0  9997
2 51636  87.9042  60.3963 0002370  92.5623 267.5780 13.17650189177583
ONEWEB-0443             
1 51637U 22012R   25259.17039123 -.00000043  00000+0 -14272-3 0  9995
2 51637  87.9037  60.3998 0001881  82.7979 277.3366 13.17649171177631
ONEWEB-0444             
1 51638U 22012S   25259.04893500  .00000338  00000+0  93260-3 0  9998
2 51638  87.8739  90.9436 0001579  81.5626 278.5680 13.10376925173439
ONEWEB-0445             
1 51639U 22012T   25259.22324292  .00000564  00000+0  15786-2 0  9993
2 51639  87.8745  90.8627 0001793  91.6903 268.4430 13.10371186173464
ONEWEB-0446             
1 51640U 22012U   25259.04727184  .00000243  00000+0  66114-3 0  9998
2 51640  87.8743  90.9595 0001737  93.7314 266.4012 13.10375709173421
ONEWEB-0448             
1 51641U 22012V   25259.05225022  .00000484  00000+0  13504-2 0  9995
2 51641  87.8741  90.9581 0001627  83.6444 276.4868 13.10376948173397
ONEWEB-0449             
1 51642U 22012W   25259.05724370  .00000589  00000+0  16498-2 0  9997
2 51642  87.8736  90.9279 0002093  79.2238 280.9125 13.10375477173400
