[{"OBJECT_NAME":"ONEWEB-0422","OBJECT_ID":"2022-012E","EPOCH":"2025-09-16T04:10:13.170720","MEAN_MOTION":13.17646956,"ECCENTRICITY":0.00010893,"INCLINATION":87.9052,"RA_OF_ASC_NODE":60.3484,"ARG_OF_PERICENTER":80.294,"MEAN_ANOMALY":279.8314,"EPHEMERIS_TYPE":0,"CLASSIFICATION_TYPE":"U","NORAD_CAT_ID":51626,"ELEMENT_SET_NO":999,"REV_AT_EPOCH":17772,"BSTAR":-6.3973917e-5,"MEAN_MOTION_DOT":-1.2e-7,"MEAN_MOTION_DDOT":0},{"OBJECT_NAME":"ONEWEB-0423","OBJECT_ID":"2022-012F","EPOCH":"2025-09-16T04:00:29.332224","MEAN_MOTION":13.17647282,"ECCENTRICITY":0.00017528,"INCLINATION":87.9052,"RA_OF_ASC_NODE":60.3589,"ARG_OF_PERICENTER":89.4575,"MEAN_ANOMALY":270.6758,"EPHEMERIS_TYPE":0,"CLASSIFICATION_TYPE":"U","NORAD_CAT_ID":51627,"ELEMENT_SET_NO":999,"REV_AT_EPOCH":17761,"BSTAR":-7.6153938e-5,"MEAN_MOTION_DOT":-1.7e-7,"MEAN_MOTION_DDOT":0},{"OBJECT_NAME":"ONEWEB-0425","OBJECT_ID":"2022-012G","EPOCH":"2025-09-16T01:27:12.602592","MEAN_MOTION":13.10373247,"ECCENTRICITY":0.00019778,"INCLINATION":87.8737,"RA_OF_ASC_NODE":90.9248,"ARG_OF_PERICENTER":81.3489,"MEAN_ANOMALY":278.7863,"EPHEMERIS_TYPE":0,"CLASSIFICATION_TYPE":"U","NORAD_CAT_ID":51628,"ELEMENT_SET_NO":999,"REV_AT_EPOCH":17342,"BSTAR":0.0019273152,"MEAN_MOTION_DOT":6.86e-6,"MEAN_MOTION_DDOT":0},{"OBJECT_NAME":"ONEWEB-0428","OBJECT_ID":"2022-012H","EPOCH":"2025-09-16T00:58:29.717472","MEAN_MOTION":13.10375976,"ECCENTRICITY":0.00014843,"INCLINATION":87.8741,"RA_OF_ASC_NODE":90.9503,"ARG_OF_PERICENTER":86.0456,"MEAN_ANOMALY":274.0841,"EPHEMERIS_TYPE":0,"CLASSIFICATION_TYPE":"U","NORAD_CAT_ID":51629,"ELEMENT_SET_NO":999,"REV_AT_EPOCH":17338,"BSTAR":-0.00033318732,"MEAN_MOTION_DOT":-1.04e-6,"MEAN_MOTION_DDOT":0},{"OBJECT_NAME":"ONEWEB-0431","OBJECT_ID":"2022-012J","EPOCH":"2025-09-16T05:45:09.764640","MEAN_MOTION":13.10371954,"ECCENTRICITY":0.00013557,"INCLINATION":87.8739,"RA_OF_ASC_NODE":90.883,"ARG_OF_PERICENTER":109.9457,"MEAN_ANOMALY":250.1816,"EPHEMERIS_TYPE":0,"CLASSIFICATION_TYPE":"U","NORAD_CAT_ID":51630,"ELEMENT_SET_NO":999,"REV_AT_EPOCH":17346,"BSTAR":-0.00065993693,"MEAN_MOTION_DOT":-2.18e-6,"MEAN_MOTION_DDOT":0},{"OBJECT_NAME":"ONEWEB-0434","OBJECT_ID":"2022-012K","EPOCH":"2025-09-16T01:31:59.833344","MEAN_MOTION":13.10373273,"ECCENTRICITY":0.0002232,"INCLINATION":87.8738,"RA_OF_ASC_NODE":90.9596,"ARG_OF_PERICENTER":76.9111,"MEAN_ANOMALY":283.2265,"EPHEMERIS_TYPE":0,"CLASSIFICATION_TYPE":"U","NORAD_CAT_ID":51631,"ELEMENT_SET_NO":999,"REV_AT_EPOCH":17342,"BSTAR":0.0019917076,"MEAN_MOTION_DOT":7.08e-6,"MEAN_MOTION_DDOT":0},{"OBJECT_NAME":"ONEWEB-0435","OBJECT_ID":"2022-012L","EPOCH":"2025-09-16T05:23:50.920224","MEAN_MOTION":13.10369882,"ECCENTRICITY":0.00013053,"INCLINATION":87.8734,"RA_OF_ASC_NODE":90.9191,"ARG_OF_PERICENTER":79.9979,"MEAN_ANOMALY":280.1295,"EPHEMERIS_TYPE":0,"CLASSIFICATION_TYPE":"U","NORAD_CAT_ID":51632,"ELEMENT_SET_NO":999,"REV_AT_EPOCH":17343,"BSTAR":0.0015660248,"MEAN_MOTION_DOT":5.59e-6,"MEAN_MOTION_DDOT":0},{"OBJECT_NAME":"ONEWEB-0436","OBJECT_ID":"2022-012M","EPOCH":"2025-09-16T03:48:20.428128","MEAN_MOTION":13.17647264,"ECCENTRICITY":0.00015051,"INCLINATION":87.9044,"RA_OF_ASC_NODE":60.3411,"ARG_OF_PERICENTER":94.3878,"MEAN_ANOMALY":265.7426,"EPHEMERIS_TYPE":0,"CLASSIFICATION_TYPE":"U","NORAD_CAT_ID":51633,"ELEMENT_SET_NO":999,"REV_AT_EPOCH":17759,"BSTAR":-9.5961437e-5,"MEAN_MOTION_DOT":-2.4e-7,"MEAN_MOTION_DDOT":0},{"OBJECT_NAME":"ONEWEB-0438","OBJECT_ID":"2022-012N","EPOCH":"2025-09-16T01:20:01.984128","MEAN_MOTION":13.10374339,"ECCENTRICITY":0.00018297,"INCLINATION":87.874,"RA_OF_ASC_NODE":90.9537,"ARG_OF_PERICENTER":83.2322,"MEAN_ANOMALY":276.9013,"EPHEMERIS_TYPE":0,"CLASSIFICATION_TYPE":"U","NORAD_CAT_ID":51634,"ELEMENT_SET_NO":999,"REV_AT_EPOCH":17344,"BSTAR":0.0016380704,"MEAN_MOTION_DOT":5.85e-6,"MEAN_MOTION_DDOT":0},{"OBJECT_NAME":"ONEWEB-0439","OBJECT_ID":"2022-012P","EPOCH":"2025-09-16T01:24:48.905568","MEAN_MOTION":13.10373889,"ECCENTRICITY":0.00016571,"INCLINATION":87.874,"RA_OF_ASC_NODE":90.9415,"ARG_OF_PERICENTER":84.0392,"MEAN_ANOMALY":276.0924,"EPHEMERIS_TYPE":0,"CLASSIFICATION_TYPE":"U","NORAD_CAT_ID":51635,"ELEMENT_SET_NO":999,"REV_AT_EPOCH":17342,"BSTAR":0.0021204872,"MEAN_MOTION_DOT":7.53e-6,"MEAN_MOTION_DDOT":0},{"OBJECT_NAME":"ONEWEB-0442","OBJECT_ID":"2022-012Q","EPOCH":"2025-09-16T03:37:25.888512","MEAN_MOTION":13.17650189,"ECCENTRICITY":0.00023709,"INCLINATION":87.9042,"RA_OF_ASC_NODE":60.3963,"ARG_OF_PERICENTER":92.5623,"MEAN_ANOMALY":267.578,"EPHEMERIS_TYPE":0,"CLASSIFICATION_TYPE":"U","NORAD_CAT_ID":51636,"ELEMENT_SET_NO":999,"REV_AT_EPOCH":17758,"BSTAR":0.00018986827,"MEAN_MOTION_DOT":8.7e-7,"MEAN_MOTION_DDOT":0},{"OBJECT_NAME":"ONEWEB-0443","OBJECT_ID":"2022-012R","EPOCH":"2025-09-16T04:05:21.802272","MEAN_MOTION":13.17649171,"ECCENTRICITY":0.00018818,"INCLINATION":87.9037,"RA_OF_ASC_NODE":60.3998,"ARG_OF_PERICENTER":82.7979,"MEAN_ANOMALY":277.3366,"EPHEMERIS_TYPE":0,"CLASSIFICATION_TYPE":"U","NORAD_CAT_ID":51637,"ELEMENT_SET_NO":999,"REV_AT_EPOCH":17763,"BSTAR":-0.00014272426,"MEAN_MOTION_DOT":-4.3e-7,"MEAN_MOTION_DDOT":0},{"OBJECT_NAME":"ONEWEB-0444","OBJECT_ID":"2022-012S","EPOCH":"2025-09-16T01:10:27.984000","MEAN_MOTION":13.10376925,"ECCENTRICITY":0.0001579,"INCLINATION":87.8739,"RA_OF_ASC_NODE":90.9436,"ARG_OF_PERICENTER":81.5626,"MEAN_ANOMALY":278.568,"EPHEMERIS_TYPE":0,"CLASSIFICATION_TYPE":"U","NORAD_CAT_ID":51638,"ELEMENT_SET_NO":999,"REV_AT_EPOCH":17343,"BSTAR":0.00093260014,"MEAN_MOTION_DOT":3.38e-6,"MEAN_MOTION_DDOT":0},{"OBJECT_NAME":"ONEWEB-0445","OBJECT_ID":"2022-012T","EPOCH":"2025-09-16T05:21:28.188288","MEAN_MOTION":13.10371186,"ECCENTRICITY":0.00017932,"INCLINATION":87.8745,"RA_OF_ASC_NODE":90.8627,"ARG_OF_PERICENTER":91.6903,"MEAN_ANOMALY":268.443,"EPHEMERIS_TYPE":0,"CLASSIFICATION_TYPE":"U","NORAD_CAT_ID":51639,"ELEMENT_SET_NO":999,"REV_AT_EPOCH":17346,"BSTAR":0.0015786444,"MEAN_MOTION_DOT":5.64e-6,"MEAN_MOTION_DDOT":0},{"OBJECT_NAME":"ONEWEB-0446","OBJECT_ID":"2022-012U","EPOCH":"2025-09-16T01:08:04.286976","MEAN_MOTION":13.10375709,"ECCENTRICITY":0.0001737,"INCLINATION":87.8743,"RA_OF_ASC_NODE":90.9595,"ARG_OF_PERICENTER":93.7314,"MEAN_ANOMALY":266.4012,"EPHEMERIS_TYPE":0,"CLASSIFICATION_TYPE":"U","NORAD_CAT_ID":51640,"ELEMENT_SET_NO":999,"REV_AT_EPOCH":17342,"BSTAR":0.00066114083,"MEAN_MOTION_DOT":2.43e-6,"MEAN_MOTION_DDOT":0},{"OBJECT_NAME":"ONEWEB-0448","OBJECT_ID":"2022-012V","EPOCH":"2025-09-16T01:15:14.419008","MEAN_MOTION":13.10376948,"ECCENTRICITY":0.0001627,"INCLINATION":87.8741,"RA_OF_ASC_NODE":90.9581,"ARG_OF_PERICENTER":83.6444,"MEAN_ANOMALY":276.4868,"EPHEMERIS_TYPE":0,"CLASSIFICATION_TYPE":"U","NORAD_CAT_ID":51641,"ELEMENT_SET_NO":999,"REV_AT_EPOCH":17339,"BSTAR":0.0013504375,"MEAN_MOTION_DOT":4.84e-6,"MEAN_MOTION_DDOT":0},{"OBJECT_NAME":"ONEWEB-0449","OBJECT_ID":"2022-012W","EPOCH":"2025-09-16T01:22:25.855680","MEAN_MOTION":13.10375477,"ECCENTRICITY":0.0002093,"INCLINATION":87.8736,"RA_OF_ASC_NODE":90.9279,"ARG_OF_PERICENTER":79.2238,"MEAN_ANOMALY":280.9125,"EPHEMERIS_TYPE":0,"CLASSIFICATION_TYPE":"U","NORAD_CAT_ID":51642,"ELEMENT_SET_NO":999,"REV_AT_EPOCH":17340,"BSTAR":0.0016498066,"MEAN_MOTION_DOT":5.89e-6,"MEAN_MOTION_DDOT":0}]
